satname,norad_id,inclination_deg,eccentricity,mean_motion_rev_per_day,perigee_km,apogee_km,l1,l2
STARLINK-1284,45390,53.0557,0.0001323,15.0641293,546.2557112626018,548.0881480053831,1 45390U 20019AG  25365.48187796  .00003444  00000+0  24993-3 0  9998,2 45390  53.0557  92.8141 0001323  90.1353 269.9787 15.06412930319724
STARLINK-1297,45395,53.0547,0.0001537,15.06403834,546.135383038114,548.2642315726807,1 45395U 20019AM  25365.51875214  .00013609  00000+0  93068-3 0  9999,2 45395  53.0547  92.6514 0001537  89.7904 270.3261 15.06403834318919
STARLINK-1307,45397,53.0554,0.0001129,15.06451322,546.2724137714858,547.8361219597691,1 45397U 20019AP  25365.51136875  .00035972  00000+0  24182-2 0  9991,2 45397  53.0554  92.6827 0001129  94.2051 265.9067 15.06451322319557
STARLINK-1255,45399,53.0476,0.0002562,15.40696932,442.30335962879053,445.79904886464647,1 45399U 20019AR  25365.60688662  .00085430  00000+0  20477-2 0  9996,2 45399  53.0476  67.4037 0002562  43.0959 317.0245 15.40696932319908
STARLINK-1260,45404,53.0565,0.0001507,15.06385699,546.2117321573232,548.299045423304,1 45404U 20019AW  25365.51230811 -.00001272  00000+0 -66565-4 0  9996,2 45404  53.0565  82.6761 0001507  64.9787 295.1359 15.06385699319589
STARLINK-1263,45405,53.0535,0.000162,15.06386906,546.1297764853998,548.3736024207819,1 45405U 20019AX  25365.63024043 -.00018634  00000+0 -12358-2 0  9997,2 45405  53.0535  82.1494 0001620 113.6447 246.4712 15.06386906319603
STARLINK-1265,45406,53.0553,0.0001382,15.06389331,546.2871693899242,548.2013447693807,1 45406U 20019AY  25365.50493562  .00001195  00000+0  99144-4 0  9992,2 45406  53.0553  82.7135 0001382  66.9783 293.1352 15.06389331319581
STARLINK-1278,45408,53.0508,0.000357,15.42903285,435.11263115095335,439.97902869151767,1 45408U 20019BA  25365.58066650  .00101555  00000+0  22551-2 0  9993,2 45408  53.0508  96.7076 0003570 240.1370 119.9280 15.42903285319407
STARLINK-1296,45412,53.056,0.0001201,15.06393839,546.3987039506737,548.0621772099003,1 45412U 20019BE  25365.50860812  .00002187  00000+0  16569-3 0  9996,2 45412  53.0560  82.6948 0001201  93.6522 266.4605 15.06393839319587
STARLINK-1298,45413,53.0428,0.0004797,15.66426515,365.90256849728485,372.37590531897513,1 45413U 20019BF  25365.66668981  .00133238  00000+0  12422-2 0  9992,2 45413  53.0428  35.3481 0004797  70.2358 198.5479 15.66426515  5961
STARLINK-1309,45414,53.0555,0.0001341,15.06391358,546.3093517567513,548.1667373436994,1 45414U 20019BG  25365.58971389  .00001076  00000+0  91149-4 0  9992,2 45414  53.0555  82.3304 0001341  82.5822 277.5319 15.06391358319580
STARLINK-1316,45415,53.0562,0.0001186,15.06388436,546.4256496170665,548.068350701903,1 45415U 20019BH  25365.48281898  .00000021  00000+0  20274-4 0  9991,2 45415  53.0562  82.8094 0001186  89.4772 270.6353 15.06388436319605
STARLINK-1318,45416,53.0451,0.0004232,15.7361304,345.73408877381644,351.42758275000506,1 45416U 20019BJ  25365.66668981  .00080138  00000+0  55969-3 0  9999,2 45416  53.0451  23.7173 0004232  44.0612  68.0005 15.73613040  5982
STARLINK-1286,45417,53.0514,0.0001856,15.43766453,433.74049997368365,436.2695382911852,1 45417U 20019BK  25365.48085731  .00039102  00000+0  85599-3 0  9993,2 45417  53.0514  96.9052 0001856 261.9012  98.1783 15.43766453319668
STARLINK-1308,45419,53.0558,0.0001884,15.06397935,545.9131500124058,548.5226237337802,1 45419U 20019BM  25365.58325359  .00001206  00000+0  99844-4 0  9992,2 45419  53.0558 112.3617 0001884  91.5711 268.5494 15.06397935319208
STARLINK-1329,45531,53.0551,0.0002615,15.43224687,434.81742455526,438.3815317333292,1 45531U 20025A   25365.45590680  .00122323  00000+0  26782-2 0  9994,2 45531  53.0551  48.4023 0002615  30.6993 329.4164 15.43224687314878
STARLINK-1338,45532,53.065,0.0001306,15.37826102,451.6469670895631,453.4311396747071,1 45532U 20025B   25365.66668981  .01055686  00000+0  25683-1 0  9994,2 45532  53.0650  50.0861 0001306  77.3414  22.5168 15.37826102  5808
STARLINK-1350,45535,53.0753,0.0001944,15.34152906,462.1077520859426,464.767756350383,1 45535U 20025E   25365.23669861  .00019360  00000+0  58716-3 0  9991,2 45535  53.0753 354.1530 0001944  86.5680 273.5544 15.34152906315644
STARLINK-1362,45538,53.0554,0.0001414,15.06393233,546.2530506775684,548.2115451150121,1 45538U 20025H   25365.46249648  .00007126  00000+0  49690-3 0  9994,2 45538  53.0554  52.6215 0001414  91.2367 268.8784 15.06393233314813
STARLINK-1368,45540,53.0574,0.0001524,15.0639963,546.1572686421678,548.2681152282703,1 45540U 20025K   25365.53350111 -.00000491  00000+0 -14084-4 0  9993,2 45540  53.0574  52.5870 0001524  98.3772 261.7390 15.06399630314816
STARLINK-1371,45542,53.0538,0.0001298,15.22029516,498.8269838062861,500.6124754132934,1 45542U 20025M   25365.66668981  .01809115  00000+0  71156-1 0  9995,2 45542  53.0538  51.5167 0001298  85.0801 319.3507 15.22029516  5807
STARLINK-1372,45543,53.0553,0.0001301,15.06393604,546.3301704287196,548.1321512241675,1 45543U 20025N   25365.54087115  .00005734  00000+0  40359-3 0  9994,2 45543  53.0553  52.5520 0001301  81.4308 278.6828 15.06393604313917
STARLINK-1373,45544,53.0555,0.0001171,15.17762365,511.79807233865995,513.4118841099598,1 45544U 20025P   25365.66668981  .02010782  00000+0  88506-1 0  9999,2 45544  53.0555  51.7403 0001171  57.7541 291.2658 15.17762365  5647
STARLINK-1294,45551,53.043,0.0002895,15.72432349,349.99931176500195,353.8960307896714,1 45551U 20025W   25365.66668981  .00184790  00000+0  13348-2 0  9999,2 45551  53.0430 319.1898 0002895 129.2939 342.5319 15.72432349  5816
STARLINK-1325,45554,53.0472,0.0009831,15.85670344,307.85840565338367,321.0173463746032,1 45554U 20025Z   25365.66668981  .00363262  00000+0  14065-2 0  9992,2 45554  53.0472 308.8011 0009831  96.5982  45.0753 15.85670344  5740
STARLINK-1327,45555,53.0529,0.000151,15.26243405,486.017618920685,488.09090668205135,1 45555U 20025AA  25365.66668981  .01710538  00000+0  58760-1 0  9995,2 45555  53.0529  31.2509 0001510  86.4582 305.1415 15.26243405  5758
STARLINK-1356,45564,53.0557,0.0001322,15.06419757,546.2354831661796,548.0665293150296,1 45564U 20025AK  25365.46899106  .00014732  00000+0  10053-2 0  9994,2 45564  53.0557  32.8725 0001322  98.8184 261.2955 15.06419757315086
STARLINK-1357,45565,53.0585,0.0002007,15.42702979,436.7677609689872,439.50381286565516,1 45565U 20025AL  25365.66668981  .00073742  00000+0  16572-2 0  9990,2 45565  53.0585   3.7477 0002007  37.2806 148.5611 15.42702979  5834
STARLINK-1361,45567,53.0568,0.0001399,15.06418196,546.1869419189597,548.1246388417085,1 45567U 20025AN  25365.48740619  .00002463  00000+0  18413-3 0  9990,2 45567  53.0568  32.7893 0001399  96.8733 263.2415 15.06418196315098
STARLINK-1363,45568,53.051,0.0008178,15.5305265,402.2696945361213,413.3688045778972,1 45568U 20025AP  25365.40134800  .00046070  00000+0  72694-3 0  9995,2 45568  53.0510  13.2739 0008178 349.5612  10.5226 15.53052650315358
STARLINK-1366,45569,53.0494,0.0009099,15.5066383,408.60582246440663,420.9675850204767,1 45569U 20025AQ  25365.66668981  .00085959  00000+0  14627-2 0  9996,2 45569  53.0494  12.4982 0009099   6.2129  85.5705 15.50663830  5753
STARLINK-1376,45570,53.0547,0.0001403,15.06388035,546.2765976350729,548.2198607303817,1 45570U 20025AR  25365.35105063 -.00000823  00000+0 -36376-4 0  9997,2 45570  53.0547  33.4036 0001403  87.6563 272.4587 15.06388035315068
STARLINK-1320,45572,53.0547,0.0006146,15.53661383,401.87705810284297,410.216176605295,1 45572U 20025AT  25365.66668981  .00151769  00000+0  22965-2 0  9997,2 45572  53.0547 317.6297 0006146 108.6656 108.0425 15.53661383  5920
STARLINK-1321,45573,53.0552,0.0001502,15.2734495,482.7223546795585,484.7836664387296,1 45573U 20025AU  25365.66668981  .01682074  00000+0  55997-1 0  9997,2 45573  53.0552  21.1058 0001502  92.5147 350.6463 15.27344950  5540
STARLINK-1328,45576,53.0435,0.0001477,16.00332148,272.51573360772,274.48062663992823,1 45576U 20025AX  25365.33334491  .00637129  19355-3  11974-2 0  9995,2 45576  53.0435 326.8388 0001477 127.4588  30.5045 16.00332148  5977
STARLINK-1331,45578,53.0558,0.0001388,15.06387073,546.2899337357221,548.2124214938276,1 45578U 20025AZ  25365.38144608  .00003089  00000+0  22628-3 0  9995,2 45578  53.0558  23.2663 0001388  73.7132 286.4010 15.06387073315226
STARLINK-1333,45580,53.0549,0.0001372,15.06394036,546.2796764696022,548.1799971296196,1 45580U 20025BB  25365.45425661  .00002379  00000+0  17858-3 0  9997,2 45580  53.0549  32.9376 0001372  93.8644 266.2502 15.06394036315084
STARLINK-1335,45581,53.0554,0.0001385,15.06413438,546.2112176387491,548.1295277809895,1 45581U 20025BC  25365.32614510  .00003367  00000+0  24471-3 0  9994,2 45581  53.0554  23.5153 0001385  98.3104 261.8042 15.06413438315207
STARLINK-1337,45582,53.0564,0.0001327,15.06446545,546.1499330660236,547.9878827139773,1 45582U 20025BD  25365.34825462 -.00009489  00000+0 -61822-3 0  9991,2 45582  53.0564  23.4167 0001327  84.0557 276.0583 15.06446545315206
STARLINK-1347,45586,53.0512,0.0002567,15.41393614,440.24465103067814,443.74610699406367,1 45586U 20025BH  25365.66668981  .00073730  00000+0  17309-2 0  9999,2 45586  53.0512 354.6430 0002567  53.0295 272.2420 15.41393614  5837
STARLINK-1360,45588,53.0252,0.0004395,16.26707245,198.51193573646196,204.29535196240522,1 45588U 20025BK  25365.13560596  .12494271  11941-4  36026-2 0  9994,2 45588  53.0252 253.6542 0004395 216.8863 143.1876 16.26707245317002
STARLINK-1364,45589,53.0556,0.0001405,15.06411558,546.2031280640203,548.1491410548324,1 45589U 20025BL  25365.28561387  .00003606  00000+0  26078-3 0  9991,2 45589  53.0556  23.6981 0001405  97.8229 262.2920 15.06411558315191
STARLINK-1365,45590,53.056,0.0001014,15.06397659,546.5165017040999,547.9209638467064,1 45590U 20025BM  25365.36762665  .00000073  00000+0  23809-4 0  9999,2 45590  53.0560  53.3258 0001014  80.8750 279.2354 15.06397659314803
